CCSDS_OMM_VERS = 2.0
CREATION_DATE  = 
ORIGINATOR     = 

OBJECT_NAME    = CZ-2C R/B
OBJECT_ID      = 2022-132E
CENTER_NAME    = EARTH
REF_FRAME      = TEME
TIME_SYSTEM    = UTC
MEAN_ELEMENT_THEORY = SGP/SGP4

EPOCH          = 2026-02-22T22:46:56.137440
MEAN_MOTION    = 15.60468671
ECCENTRICITY   = .0020324
INCLINATION    = 97.2968
RA_OF_ASC_NODE = 56.8360
ARG_OF_PERICENTER = 138.7214
MEAN_ANOMALY   = 221.5584

EPHEMERIS_TYPE = 0
CLASSIFICATION_TYPE = U
NORAD_CAT_ID   = 54039
ELEMENT_SET_NO = 999
REV_AT_EPOCH   = 18807
BSTAR          = .5164E-3
MEAN_MOTION_DOT = .42924E-3
MEAN_MOTION_DDOT = 0

CCSDS_OMM_VERS = 2.0
CREATION_DATE  = 
ORIGINATOR     = 

OBJECT_NAME    = GSLV R/B
OBJECT_ID      = 2022-138AN
CENTER_NAME    = EARTH
REF_FRAME      = TEME
TIME_SYSTEM    = UTC
MEAN_ELEMENT_THEORY = SGP/SGP4

EPOCH          = 2026-02-23T01:53:30.486048
MEAN_MOTION    = 14.96655212
ECCENTRICITY   = .0020859
INCLINATION    = 87.3879
RA_OF_ASC_NODE = 171.2510
ARG_OF_PERICENTER = 198.9246
MEAN_ANOMALY   = 161.1212

EPHEMERIS_TYPE = 0
CLASSIFICATION_TYPE = U
NORAD_CAT_ID   = 54149
ELEMENT_SET_NO = 999
REV_AT_EPOCH   = 18174
BSTAR          = .33262E-3
MEAN_MOTION_DOT = .3836E-4
MEAN_MOTION_DDOT = 0

CCSDS_OMM_VERS = 2.0
CREATION_DATE  = 
ORIGINATOR     = 

OBJECT_NAME    = XRISM
OBJECT_ID      = 2023-137A
CENTER_NAME    = EARTH
REF_FRAME      = TEME
TIME_SYSTEM    = UTC
MEAN_ELEMENT_THEORY = SGP/SGP4

EPOCH          = 2026-02-23T04:15:36.921024
MEAN_MOTION    = 15.11303509
ECCENTRICITY   = .0008347
INCLINATION    = 31.0036
RA_OF_ASC_NODE = 17.5121
ARG_OF_PERICENTER = 254.1594
MEAN_ANOMALY   = 105.8125

EPHEMERIS_TYPE = 0
CLASSIFICATION_TYPE = U
NORAD_CAT_ID   = 57800
ELEMENT_SET_NO = 999
REV_AT_EPOCH   = 13559
BSTAR          = .37065E-3
MEAN_MOTION_DOT = .65E-4
MEAN_MOTION_DDOT = 0

CCSDS_OMM_VERS = 2.0
CREATION_DATE  = 
ORIGINATOR     = 

OBJECT_NAME    = ACS3
OBJECT_ID      = 2024-077B
CENTER_NAME    = EARTH
REF_FRAME      = TEME
TIME_SYSTEM    = UTC
MEAN_ELEMENT_THEORY = SGP/SGP4

EPOCH          = 2026-02-22T17:35:50.323776
MEAN_MOTION    = 13.88926057
ECCENTRICITY   = .0050493
INCLINATION    = 97.2151
RA_OF_ASC_NODE = 358.2085
ARG_OF_PERICENTER = 119.2971
MEAN_ANOMALY   = 241.3252

EPHEMERIS_TYPE = 0
CLASSIFICATION_TYPE = U
NORAD_CAT_ID   = 59588
ELEMENT_SET_NO = 999
REV_AT_EPOCH   = 9212
BSTAR          = .17627E-1
MEAN_MOTION_DOT = .21575E-3
MEAN_MOTION_DDOT = 0

CCSDS_OMM_VERS = 2.0
CREATION_DATE  = 
ORIGINATOR     = 

OBJECT_NAME    = SZ-21 MODULE
OBJECT_ID      = 2025-246C
CENTER_NAME    = EARTH
REF_FRAME      = TEME
TIME_SYSTEM    = UTC
MEAN_ELEMENT_THEORY = SGP/SGP4

EPOCH          = 2026-02-22T23:28:02.016768
MEAN_MOTION    = 15.67341195
ECCENTRICITY   = .0001579
INCLINATION    = 41.4753
RA_OF_ASC_NODE = 293.8417
ARG_OF_PERICENTER = 292.9076
MEAN_ANOMALY   = 67.1598

EPHEMERIS_TYPE = 0
CLASSIFICATION_TYPE = U
NORAD_CAT_ID   = 66515
ELEMENT_SET_NO = 999
REV_AT_EPOCH   = 1576
BSTAR          = .34403E-3
MEAN_MOTION_DOT = .38051E-3
MEAN_MOTION_DDOT = 0

