CZ-2C R/B               
1 54039U 22132E   26053.94926085  .00042924  00000+0  51640-3 0  9999
2 54039  97.2968  56.8360 0020324 138.7214 221.5584 15.60468671188074
GSLV R/B                
1 54149U 22138AN  26054.07882507  .00003836  00000+0  33262-3 0  9991
2 54149  87.3879 171.2510 0020859 198.9246 161.1212 14.96655212181743
XRISM                   
1 57800U 23137A   26054.17751066  .00006500  00000+0  37065-3 0  9990
2 57800  31.0036  17.5121 0008347 254.1594 105.8125 15.11303509135597
ACS3                    
1 59588U 24077B   26053.73322134  .00021575  00000+0  17627-1 0  9999
2 59588  97.2151 358.2085 0050493 119.2971 241.3252 13.88926057 92126
SZ-21 MODULE            
1 66515U 25246C   26053.97780112  .00038051  00000+0  34403-3 0  9996
2 66515  41.4753 293.8417 0001579 292.9076  67.1598 15.67341195 15767
